     2.11           N: GPS NAV DATA                         RINEX VERSION / TYPE
teqc  2019Feb25                         20221121 12:24:19UTCPGM / RUN BY / DATE
OSX ker:10.11.6|Core i5|gcc 4.3 -m64|OSX ker:10.10+|=+      COMMENT
    5.5879D-09  1.4901D-08 -5.9605D-08 -1.1921D-07          ION ALPHA
    8.3968D+04  9.8304D+04 -6.5536D+04 -5.2429D+05          ION BETA
   -7.450580596924D-09-2.042810365310D-14   589824     1536 DELTA-UTC: A0,A1,T,W
                                                            END OF HEADER
23 09  6 19  0  0  0.0 3.902176395059D-04 0.000000000000D+00 0.000000000000D+00
    1.800000000000D+01-5.646875000000D+01 4.289107229961D-09 9.249941367586D-01
   -2.961605787277D-06 6.216050940566D-03 2.846121788025D-06 5.153603965759D+03
    4.320000000000D+05 1.043081283569D-07 1.326426388812D+00 7.636845111847D-08
    9.701169364415D-01 3.295312500000D+02 2.896855638739D+00-8.227128407207D-09
   -6.035965707914D-11 1.000000000000D+00 1.536000000000D+03 0.000000000000D+00
    2.000000000000D+00 0.000000000000D+00-2.002343535423D-08 1.800000000000D+01
    4.248180000000D+05 4.000000000000D+00
25 09  6 19  0  0  0.0 4.688887856901D-04 1.773514668457D-11 0.000000000000D+00
    3.300000000000D+01-8.187500000000D+01 4.091956160685D-09-2.484033369846D+00
   -4.110857844353D-06 1.133704395033D-02 9.633600711823D-06 5.153652347565D+03
    4.320000000000D+05 6.891787052155D-08 2.274269434896D+00 1.583248376846D-07
    9.699434241169D-01 1.933750000000D+02-1.207576657992D+00-7.628889202428D-09
    2.260808457461D-10 1.000000000000D+00 1.536000000000D+03 0.000000000000D+00
    2.000000000000D+00 0.000000000000D+00-7.450580596924D-09 3.300000000000D+01
    4.248180000000D+05 4.000000000000D+00
 6 09  6 19  0  0  0.0 1.656082458794D-04 1.296029950026D-11 0.000000000000D+00
    6.500000000000D+01-2.521875000000D+01 5.590232855637D-09-3.136085125436D+00
   -1.085922122002D-06 5.997169995680D-03 6.280839443207D-06 5.153696100235D+03
    4.320000000000D+05 1.452863216400D-07-1.867295306836D+00 8.754432201386D-08
    9.334376464076D-01 2.415312500000D+02-1.340155282504D+00-8.424636634217D-09
   -3.550147877909D-10 1.000000000000D+00 1.536000000000D+03 0.000000000000D+00
    2.000000000000D+00 0.000000000000D+00-4.656612873077D-09 6.500000000000D+01
    4.248180000000D+05 4.000000000000D+00
13 09  6 19  0  0  0.0 2.997042611241D-04 7.958078640513D-13 0.000000000000D+00
    9.100000000000D+01-7.225000000000D+01 3.735512741957D-09 1.654445720705D+00
   -3.755092620850D-06 4.147254745476D-03 3.786757588387D-06 5.153694328308D+03
    4.320000000000D+05 1.676380634308D-08 1.379001866654D+00-8.568167686462D-08
    9.946212165717D-01 3.235000000000D+02 1.596763646427D+00-7.908186550570D-09
   -4.785913638228D-11 1.000000000000D+00 1.536000000000D+03 0.000000000000D+00
    2.000000000000D+00 0.000000000000D+00-1.117587089539D-08 9.100000000000D+01
    4.248180000000D+05 4.000000000000D+00
 3 09  6 19  0  0  0.0 4.085046239197D-04 5.115907697473D-12 0.000000000000D+00
    1.190000000000D+02-2.075000000000D+01 5.888816721425D-09 7.199620922596D-01
   -7.431954145432D-07 1.193929894362D-02 6.213784217834D-06 5.153628484726D+03
    4.320000000000D+05-7.823109626770D-08-1.935093718569D+00 9.499490261078D-08
    9.259962049217D-01 2.421875000000D+02 9.059180170874D-01-8.831082135732D-09
   -4.268034923643D-10 1.000000000000D+00 1.536000000000D+03 0.000000000000D+00
    2.800000000000D+00 0.000000000000D+00-4.190951585770D-09 1.190000000000D+02
    4.248180000000D+05 4.000000000000D+00
21 09  6 19  0  0  0.0 7.589813321829D-06-2.160049916711D-12 0.000000000000D+00
    7.600000000000D+01 6.646875000000D+01 4.715553564591D-09-1.619519898910D+00
    3.242865204811D-06 1.540174114052D-02 1.087784767151D-05 5.153612333298D+03
    4.320000000000D+05 1.136213541031D-07-7.554226179271D-01-2.793967723846D-07
    9.339109252758D-01 1.547500000000D+02-2.591054027000D+00-7.894971714404D-09
   -2.550106222160D-10 1.000000000000D+00 1.536000000000D+03 0.000000000000D+00
    2.000000000000D+00 0.000000000000D+00-1.210719347000D-08 7.600000000000D+01
    4.248180000000D+05 4.000000000000D+00
24 09  6 19  0  0  0.0 1.978878863156D-04 2.955857780762D-12 0.000000000000D+00
    1.000000000000D+02 8.453125000000D+01 4.390182868738D-09-2.980760595660D+00
    4.172325134277D-06 6.660088896751D-03 1.166574656963D-05 5.153680686951D+03
    4.320000000000D+05 2.607703208923D-08-7.229202515931D-01 4.470348358154D-08
    9.505686160726D-01 1.508437500000D+02-6.511033165409D-01-7.777466819854D-09
   -4.357324357192D-10 1.000000000000D+00 1.536000000000D+03 0.000000000000D+00
    4.000000000000D+00 0.000000000000D+00-1.396983861923D-09 1.000000000000D+02
    4.248180000000D+05 4.000000000000D+00
10 09  6 19  0  0  0.0-1.771282404661D-05-5.684341886081D-13 0.000000000000D+00
    9.600000000000D+01 1.025000000000D+02 4.593762777230D-09 1.992627850868D+00
    5.181878805161D-06 8.559795911424D-03 3.891065716743D-06 5.153622968674D+03
    4.320000000000D+05-1.285225152969D-07 2.973618676411D-01-7.078051567078D-08
    9.583536940895D-01 3.051875000000D+02 6.276814173133D-01-8.366062765809D-09
    1.357199389945D-10 1.000000000000D+00 1.536000000000D+03 0.000000000000D+00
    2.800000000000D+00 0.000000000000D+00-2.793967723846D-09 9.600000000000D+01
    4.248180000000D+05 4.000000000000D+00
 7 09  6 19  0  0  0.0 1.680478453636D-05-6.821210263297D-13 0.000000000000D+00
    2.200000000000D+01-7.068750000000D+01 4.244462513186D-09-6.431640045338D-01
   -3.788620233536D-06 2.696964307688D-03 9.892508387566D-06 5.153667520523D+03
    4.320000000000D+05 1.303851604462D-08 2.368725435379D+00-3.911554813385D-08
    9.677667995089D-01 1.901875000000D+02 2.871860017091D+00-7.857470152314D-09
    2.750114553310D-10 1.000000000000D+00 1.536000000000D+03 0.000000000000D+00
    2.000000000000D+00 0.000000000000D+00-1.071020960808D-08 2.200000000000D+01
    4.248180000000D+05 4.000000000000D+00
 8 09  6 19  0  0  0.0-2.082465216517D-04-1.591615728103D-12 0.000000000000D+00
    1.020000000000D+02-7.253125000000D+01 3.730155375944D-09-1.374635322439D+00
   -4.157423973084D-06 1.064119173680D-02 1.066736876965D-05 5.153646585464D+03
    4.320000000000D+05-5.029141902924D-08 2.429542398273D+00-1.266598701477D-07
    9.890086333451D-01 1.881875000000D+02 2.992864662815D+00-7.598530795022D-09
    4.564475843026D-10 1.000000000000D+00 1.536000000000D+03 0.000000000000D+00
    2.800000000000D+00 0.000000000000D+00-3.725290298462D-09 1.020000000000D+02
    4.269420000000D+05 4.000000000000D+00
18 09  6 19  0  0  0.0-4.706857725978D-05 3.183231456205D-12 0.000000000000D+00
    6.000000000000D+01 1.116562500000D+02 4.701981570691D-09-2.899622139712D+00
    5.682930350304D-06 1.053341000807D-02 4.190951585770D-06 5.153608573914D+03
    4.320000000000D+05-3.725290298462D-08 3.024707316001D-01-1.303851604462D-07
    9.423911439281D-01 2.890312500000D+02-2.416564850529D+00-8.257486814613D-09
    2.721541934574D-10 1.000000000000D+00 1.536000000000D+03 0.000000000000D+00
    2.000000000000D+00 0.000000000000D+00-1.071020960808D-08 6.000000000000D+01
    4.300320000000D+05 4.000000000000D+00
15 09  6 19  0  0  0.0-3.020484000444D-04-3.069544618484D-12 0.000000000000D+00
    6.100000000000D+01-7.362500000000D+01 4.690909680931D-09 1.711688744010D+00
   -3.870576620102D-06 1.447669230402D-03 2.756714820862D-06 5.153628545761D+03
    4.320000000000D+05 9.313225746155D-09 1.306142682931D+00 5.401670932770D-08
    9.561383884646D-01 3.244687500000D+02-4.732023269134D-01-8.422493687812D-09
   -1.171477368163D-10 1.000000000000D+00 1.536000000000D+03 0.000000000000D+00
    2.000000000000D+00 0.000000000000D+00-9.778887033463D-09 6.100000000000D+01
    4.311120000000D+05 4.000000000000D+00
